CUTE-1 (CO-55)          
1 27844U 03031E   24215.76879520  .00000771  00000+0  35940-3 0  9998
2 27844  98.6778 222.1510 0010031  17.3343 342.8176 14.23344752 94415
CUBESAT XI-IV (CO-57)   
1 27848U 03031J   24215.51045681  .00000657  00000+0  31222-3 0  9990
2 27848  98.6808 222.1147 0010281  33.3191 326.8632 14.22774121 94173
CUBESAT XI-V            
1 28895U 05043F   24215.79852760  .00003754  00000+0  66238-3 0  9998
2 28895  98.2073 351.7139 0015126 206.4147 153.6288 14.68010768  1297
CUTE-1.7+APD II (CO-65) 
1 32785U 08021C   24215.87057793  .00007681  00000+0  66448-3 0  9998
2 32785  97.7583 180.8351 0011606 158.6740 201.4967 14.97400914882531
AAUSAT-II               
1 32788U 08021F   24215.89064449  .00032017  00000+0  14846-2 0  9994
2 32788  97.5953 196.3511 0005794  45.7968 314.3742 15.19982516885415
CANX-2                  
1 32790U 08021H   24215.78245902  .00006885  00000+0  62071-3 0  9998
2 32790  97.7691 179.4582 0012347 169.8656 190.2816 14.95817132882259
SEEDS II (CO-66)        
1 32791U 08021J   24215.89294530  .00012543  00000+0  88783-3 0  9998
2 32791  97.6915 186.8429 0007099 134.2220 225.9590 15.04959612883540
SWISSCUBE               
1 35932U 09051B   24215.65513732  .00002220  00000+0  47997-3 0  9997
2 35932  98.4650  99.8883 0007387 164.0035 196.1399 14.59283914789339
BEESAT-1                
1 35933U 09051C   24215.94321159  .00001869  00000+0  40833-3 0  9990
2 35933  98.4577 101.0296 0005452 172.9197 187.2080 14.58990609789445
ITUPSAT1                
1 35935U 09051E   24215.64837479  .00001728  00000+0  38716-3 0  9997
2 35935  98.4674 100.4890 0007498 184.9996 175.1128 14.57930863789039
TISAT 1                 
1 36799U 10035E   24215.94582965  .00011804  00000+0  86814-3 0  9998
2 36799  98.0842 107.4318 0006656  81.3573 278.8405 15.03550874764088
AEROCUBE 4.5A           
1 38767U 12048K   24215.24586605  .00025228  00000+0  12791-2 0  9996
2 38767  64.6585 165.9557 0110823   2.5388 357.6270 15.11636130267424
AEROCUBE 4.5B           
1 38768U 12048L   24215.94132358  .00041515  00000+0  13168-2 0  9992
2 38768  64.6542  85.3076 0086533 348.9915  10.9318 15.28826300268568
STRAND-1                
1 39090U 13009E   24215.74849617  .00000773  00000+0  27972-3 0  9990
2 39090  98.3817  42.7542 0010011 111.0020 249.2238 14.36152456598921
BRITE-AUSTRIA           
1 39091U 13009F   24215.80330724  .00000502  00000+0  18784-3 0  9993
2 39091  98.3863  42.0813 0011425 117.7154 242.5192 14.35860802598956
NEE-01 PEGASO           
1 39151U 13018B   24215.87634289  .00005744  00000+0  65887-3 0  9999
2 39151  98.0406 333.4686 0013786 244.9986 114.9798 14.86216779608901
ESTCUBE 1               
1 39161U 13021C   24215.89641012  .00003760  00000+0  54346-3 0  9992
2 39161  97.8264 280.9406 0010296  82.2109 278.0270 14.76723421603986
POPACS 1                
1 39268U 13055D   24215.70140781  .00033464  00000+0  56095-3 0  9991
2 39268  80.9807  97.7088 0389864 302.8625  53.5621 14.96899255567485
POPACS 2                
1 39269U 13055E   24215.94771894  .00017580  00000+0  40053-3 0  9991
2 39269  81.0015 188.5312 0544801 179.9385 180.1989 14.58412436562410
POPACS 3                
1 39270U 13055F   24215.81744778  .00012648  00000+0  34589-3 0  9997
2 39270  81.0054 240.9273 0621629 326.8627  29.5004 14.38399114539660
ZACUBE-1 (TSHEPISOSAT)  
1 39417U 13066B   24215.87444356  .00009105  00000+0  92965-3 0  9993
2 39417  97.7356 170.8186 0050124   8.5056 351.7000 14.89892422578533
WNISAT-1                
1 39423U 13066H   24215.49657534  .00001857  00000+0  36230-3 0  9991
2 39423  97.6701  46.0719 0168625 223.5495 135.2289 14.55412008567174
TRITON-1                
1 39427U 13066M   24215.94625171  .00005455  00000+0  76205-3 0  9991
2 39427  97.8390 132.4366 0100168 291.9726  67.0863 14.74608830573107
DELFI-N3XT              
1 39428U 13066N   24215.75902873  .00009482  00000+0  11872-2 0  9990
2 39428  97.8354 132.8856 0097507 298.1929  60.9461 14.79117808572977
GOMX-1                  
1 39430U 13066Q   24215.92596858  .00004193  00000+0  69221-3 0  9990
2 39430  97.7266  87.4756 0140905 104.0536 257.6377 14.64475009569707
CUBEBUG-2 (LO-74)       
1 39440U 13066AA  24215.84854321  .00006677  00000+0  77589-3 0  9999
2 39440  97.8136 158.5294 0070928 120.8428 239.9790 14.83848898575255
NEE-02 KRYSAOR          
1 39441U 13066AB  24215.80997688  .00003674  00000+0  46456-3 0  9993
2 39441  97.8228 154.1836 0074935 143.2754 217.3627 14.80469355574831
FUNCUBE-1 (AO-73)       
1 39444U 13066AE  24215.87482108  .00011149  00000+0  10553-2 0  9993
2 39444  97.7207 174.0679 0046621 348.3367  11.6768 14.92974853577072
UWE-3                   
1 39446U 13066AG  24215.83698406  .00007433  00000+0  81463-3 0  9991
2 39446  97.7824 164.5985 0061616  67.0741 293.6962 14.86634456575638
BRITE-CA1 (TORONTO)     
1 40020U 14033L   24215.93444496  .00001760  00000+0  28968-3 0  9993
2 40020  97.8833 351.4314 0081702 303.3802  55.9605 14.69616306541736
DUCHIFAT-1              
1 40021U 14033M   24215.94099509  .00017853  00000+0  11375-2 0  9999
2 40021  98.0916 202.2286 0010044 307.4534  52.5779 15.08769638551176
NANOSATC-BR1            
1 40024U 14033Q   24215.91600265  .00013994  00000+0  10027-2 0  9991
2 40024  98.0660 190.0030 0007014  37.8839 322.2878 15.04486136550273
QB50P1                  
1 40025U 14033R   24215.84140981  .00011183  00000+0  88754-3 0  9999
2 40025  98.0431 178.1518 0014994  21.4768 338.7081 15.00595781549878
QB50P2                  
1 40032U 14033Y   24215.85070663  .00009529  00000+0  78496-3 0  9990
2 40032  98.0079 169.5656 0010113   6.8312 353.3046 14.99254323549664
PERSEUS-M2              
1 40037U 14033AD  24215.88131770  .00004055  00000+0  41762-3 0  9990
2 40037  97.9260 146.8450 0014235  46.8992 313.3415 14.90764027548782
PERSEUS-M1              
1 40039U 14033AF  24215.84619663  .00003430  00000+0  35603-3 0  9993
2 40039  97.9056 142.7315 0014048  46.3163 313.9216 14.90557439548635
POLYITAN-1              
1 40042U 14033AJ  24215.88593980  .00014491  00000+0  10582-2 0  9991
2 40042  98.0716 182.1299 0011646 348.0142  12.0803 15.03728144549855
TIGRISAT                
1 40043U 14033AK  24215.88546025  .00005150  00000+0  68098-3 0  9998
2 40043  97.6995  16.6169 0055688 150.3875 210.0510 14.79293857544364
AEROCUBE 6A             
1 40045U 14033AM  24215.92622632  .00009519  00000+0  11163-2 0  9997
2 40045  97.6721  27.5853 0050737 127.6389 232.9445 14.84240674544726
AEROCUBE 6B             
1 40046U 14033AN  24215.46258604  .00009505  00000+0  10921-2 0  9997
2 40046  97.6684  25.8854 0049405 124.4182 236.1718 14.85125451544717
CANX-4                  
1 40055U 14034C   24215.49274326  .00002417  00000+0  33995-3 0  9992
2 40055  98.3918  52.1700 0014282  47.1813 313.0595 14.78282978543396
CANX-5                  
1 40056U 14034D   24215.49761710  .00002416  00000+0  33983-3 0  9997
2 40056  98.3920  52.1809 0014281  47.4127 312.8285 14.78292509534204
UKUBE-1                 
1 40074U 14037F   24215.80868635  .00010060  00000+0  93154-3 0  9999
2 40074  98.3415 148.6264 0002211 282.2331  77.8640 14.94720886545741
BRITE-PL2 (HEWELIUSZ)   
1 40119U 14049B   24215.85318067  .00003729  00000+0  39952-3 0  9996
2 40119  97.8852 315.3234 0015215 206.5894 153.4545 14.89208358539524
AEROCUBE 5C             
1 40965U 15058B   24215.86258909  .00007084  00000+0  63726-3 0  9999
2 40965  64.7677 218.3040 0192535 294.0928  64.0144 14.83237854263960
AEROCUBE 7              
1 40966U 15058C   24215.34520611  .00008670  00000+0  74845-3 0  9991
2 40966  64.7653 213.2226 0187215 293.8863  64.2729 14.85220549263965
FOX-1A (AO-85)          
1 40967U 15058D   24215.46990299  .00005940  00000+0  54774-3 0  9994
2 40967  64.7756 233.5463 0191654 290.0293  68.0271 14.82626473 11852
SINOD-D 1               
1 40968U 15058E   24215.44526997  .00008148  00000+0  71627-3 0  9992
2 40968  64.7756 225.9377 0186121 289.0283  69.0745 14.84743243 14680
SNAP-3 ALICE            
1 40970U 15058G   24215.59592019  .00021349  00000+0  14188-2 0  9995
2 40970  64.7688 179.9160 0154854 286.9023  71.5164 14.97850197 12739
LMRST-SAT               
1 40971U 15058H   24215.44660111  .00006247  00000+0  57385-3 0  9996
2 40971  64.7745 229.1536 0192836 291.4267  66.6367 14.82567722 11857
SNAP-3 EDDIE            
1 40972U 15058J   24215.92889989  .00024952  00000+0  16345-2 0  9999
2 40972  64.7671 172.1891 0155312 287.6555  70.7653 14.98240773 14883
PROPCUBE 3              
1 40973U 15058K   24215.34742804  .00007772  00000+0  68248-3 0  9991
2 40973  64.7689 216.8439 0189207 292.7883  65.3334 14.84449250 12888
BISONSAT                
1 40974U 15058L   24215.90058122  .00017073  00000+0  12685-2 0  9995
2 40974  64.7662 187.7929 0169496 290.2640  68.0323 14.92325644 12733
SNAP-3 JIMI             
1 40975U 15058M   24215.40189794  .00010990  00000+0  89815-3 0  9992
2 40975  64.7673 204.0200 0180878 291.7374  66.4568 14.87800967 11909
PROPCUBE 1 (FLORA)      
1 40976U 15058N   24215.47661896  .00005388  00000+0  51633-3 0  9990
2 40976  64.7741 244.7400 0190985 292.6504  65.4504 14.81404333 14659
SINOD-D 3               
1 40977U 15058P   24215.47023483  .00007125  00000+0  65159-3 0  9994
2 40977  64.7730 237.6178 0185456 291.8585  66.2890 14.83497970 12890
HORYU-4                 
1 41340U 16012D   24215.85185228  .00018180  00000+0  86869-3 0  9992
2 41340  31.0032  31.1671 0009832  81.3841 278.7913 15.17803479465242
RAVAN                   
1 41849U 16067B   24215.75113236  .00012082  00000+0  64496-3 0  9992
2 41849  98.0657  36.2190 0012126 226.2916 133.7311 15.15240007423030
CELTEE 1                
1 41850U 16067C   24215.44833260  .00007709  00000+0  51546-3 0  9998
2 41850  98.1047  27.3555 0001701  70.6507 289.4902 15.07269477422392
